ALOS (DAICHI)           
1 28931U 06002A   26031.87599754  .00001530  00000+0  26531-3 0  9995
2 28931  98.1157 348.0344 0002137  73.2891 286.8549 14.69681295 68079
H-2A R/B                
1 28932U 06002B   26031.91159561  .00006823  00000+0  34989-3 0  9995
2 28932  98.2347 175.8122 0053401   7.6618 352.5416 15.15678533 88866
RESURS-DK 1             
1 29228U 06021A   26031.90001208  .00002876  00000+0  17084-3 0  9999
2 29228  69.9351 332.1706 0005064 211.4765 148.6098 15.12513387 81967
CZ-4B R/B               
1 29507U 06046C   26031.86148400  .00004929  00000+0  25286-3 0  9991
2 29507  97.5666  76.8664 0034447  37.4948 322.8678 15.16493507 54464
CZ-2C R/B               
1 31114U 07010B   26031.88036932  .00000118  00000+0  72931-4 0  9994
2 31114  98.3971 147.0085 0059689  42.1467 318.4278 14.20232921974497
COSMO-SKYMED 1          
1 31598U 07023A   26031.95334368  .00003624  00000+0  32641-3 0  9994
2 31598  97.8857 222.7007 0001478  80.8488 279.2901 14.96237476  9411
COSMOS 2428             
1 31792U 07029A   26031.93349534  .00000399  00000+0  23986-3 0  9993
2 31792  70.9400 280.5011 0006762 318.1489  41.9115 14.12926393958908
SL-16 R/B               
1 31793U 07029B   26031.94824786  .00000260  00000+0  15958-3 0  9999
2 31793  70.9730 249.6174 0001821 272.4727 187.0432 14.14824276960174
KORONAS-FOTON           
1 33504U 09003A   26031.86007971  .00009625  00000+0  22196-3 0  9991
2 33504  82.4332 314.1330 0009109 295.7422  64.2884 15.42366076940065
CZ-2C R/B               
1 37731U 11030B   26031.85500170  .00001396  00000+0  18224-3 0  9992
2 37731  97.8481 349.8765 0054113 109.6505 278.4953 14.81078655784644
H-2A R/B                
1 38341U 12025E   26031.85012356  .00004068  00000+0  37186-3 0  9996
2 38341  98.4669 355.9763 0046501  73.8129 286.8200 14.94839513742711
SHIJIAN-16 (SJ-16)      
1 39358U 13057A   26031.95686863  .00000861  00000+0  87131-4 0  9995
2 39358  74.9716 254.6234 0017314 203.3139 156.7266 14.92217436666029
