CCSDS_OMM_VERS = 2.0
CREATION_DATE  = 
ORIGINATOR     = 

OBJECT_NAME    = ALOS (DAICHI)
OBJECT_ID      = 2006-002A
CENTER_NAME    = EARTH
REF_FRAME      = TEME
TIME_SYSTEM    = UTC
MEAN_ELEMENT_THEORY = SGP/SGP4

EPOCH          = 2026-01-31T21:01:26.187456
MEAN_MOTION    = 14.69681295
ECCENTRICITY   = .00021372
INCLINATION    = 98.1157
RA_OF_ASC_NODE = 348.0344
ARG_OF_PERICENTER = 73.2891
MEAN_ANOMALY   = 286.8549

EPHEMERIS_TYPE = 0
CLASSIFICATION_TYPE = U
NORAD_CAT_ID   = 28931
ELEMENT_SET_NO = 999
REV_AT_EPOCH   = 6807
BSTAR          = .26531185E-3
MEAN_MOTION_DOT = .153E-4
MEAN_MOTION_DDOT = 0

CCSDS_OMM_VERS = 2.0
CREATION_DATE  = 
ORIGINATOR     = 

OBJECT_NAME    = H-2A R/B
OBJECT_ID      = 2006-002B
CENTER_NAME    = EARTH
REF_FRAME      = TEME
TIME_SYSTEM    = UTC
MEAN_ELEMENT_THEORY = SGP/SGP4

EPOCH          = 2026-01-31T21:52:41.860704
MEAN_MOTION    = 15.15678533
ECCENTRICITY   = .00534016
INCLINATION    = 98.2347
RA_OF_ASC_NODE = 175.8122
ARG_OF_PERICENTER = 7.6618
MEAN_ANOMALY   = 352.5416

EPHEMERIS_TYPE = 0
CLASSIFICATION_TYPE = U
NORAD_CAT_ID   = 28932
ELEMENT_SET_NO = 999
REV_AT_EPOCH   = 8886
BSTAR          = .34988822E-3
MEAN_MOTION_DOT = .6823E-4
MEAN_MOTION_DDOT = 0

CCSDS_OMM_VERS = 2.0
CREATION_DATE  = 
ORIGINATOR     = 

OBJECT_NAME    = RESURS-DK 1
OBJECT_ID      = 2006-021A
CENTER_NAME    = EARTH
REF_FRAME      = TEME
TIME_SYSTEM    = UTC
MEAN_ELEMENT_THEORY = SGP/SGP4

EPOCH          = 2026-01-31T21:36:01.043712
MEAN_MOTION    = 15.12513387
ECCENTRICITY   = .00050644
INCLINATION    = 69.9351
RA_OF_ASC_NODE = 332.1706
ARG_OF_PERICENTER = 211.4765
MEAN_ANOMALY   = 148.6098

EPHEMERIS_TYPE = 0
CLASSIFICATION_TYPE = U
NORAD_CAT_ID   = 29228
ELEMENT_SET_NO = 999
REV_AT_EPOCH   = 8196
BSTAR          = .1708365E-3
MEAN_MOTION_DOT = .2876E-4
MEAN_MOTION_DDOT = 0

CCSDS_OMM_VERS = 2.0
CREATION_DATE  = 
ORIGINATOR     = 

OBJECT_NAME    = CZ-4B R/B
OBJECT_ID      = 2006-046C
CENTER_NAME    = EARTH
REF_FRAME      = TEME
TIME_SYSTEM    = UTC
MEAN_ELEMENT_THEORY = SGP/SGP4

EPOCH          = 2026-01-31T20:40:32.217600
MEAN_MOTION    = 15.16493507
ECCENTRICITY   = .00344475
INCLINATION    = 97.5666
RA_OF_ASC_NODE = 76.8664
ARG_OF_PERICENTER = 37.4948
MEAN_ANOMALY   = 322.8678

EPHEMERIS_TYPE = 0
CLASSIFICATION_TYPE = U
NORAD_CAT_ID   = 29507
ELEMENT_SET_NO = 999
REV_AT_EPOCH   = 5446
BSTAR          = .25285894E-3
MEAN_MOTION_DOT = .4929E-4
MEAN_MOTION_DDOT = 0

CCSDS_OMM_VERS = 2.0
CREATION_DATE  = 
ORIGINATOR     = 

OBJECT_NAME    = CZ-2C R/B
OBJECT_ID      = 2007-010B
CENTER_NAME    = EARTH
REF_FRAME      = TEME
TIME_SYSTEM    = UTC
MEAN_ELEMENT_THEORY = SGP/SGP4

EPOCH          = 2026-01-31T21:07:43.909248
MEAN_MOTION    = 14.20232921
ECCENTRICITY   = .00596892
INCLINATION    = 98.3971
RA_OF_ASC_NODE = 147.0085
ARG_OF_PERICENTER = 42.1467
MEAN_ANOMALY   = 318.4278

EPHEMERIS_TYPE = 0
CLASSIFICATION_TYPE = U
NORAD_CAT_ID   = 31114
ELEMENT_SET_NO = 999
REV_AT_EPOCH   = 97449
BSTAR          = .72930712E-4
MEAN_MOTION_DOT = .118E-5
MEAN_MOTION_DDOT = 0

CCSDS_OMM_VERS = 2.0
CREATION_DATE  = 
ORIGINATOR     = 

OBJECT_NAME    = COSMO-SKYMED 1
OBJECT_ID      = 2007-023A
CENTER_NAME    = EARTH
REF_FRAME      = TEME
TIME_SYSTEM    = UTC
MEAN_ELEMENT_THEORY = SGP/SGP4

EPOCH          = 2026-01-31T22:52:48.893952
MEAN_MOTION    = 14.96237476
ECCENTRICITY   = .00014784
INCLINATION    = 97.8857
RA_OF_ASC_NODE = 222.7007
ARG_OF_PERICENTER = 80.8488
MEAN_ANOMALY   = 279.2901

EPHEMERIS_TYPE = 0
CLASSIFICATION_TYPE = U
NORAD_CAT_ID   = 31598
ELEMENT_SET_NO = 999
REV_AT_EPOCH   = 941
BSTAR          = .32640506E-3
MEAN_MOTION_DOT = .3624E-4
MEAN_MOTION_DDOT = 0

CCSDS_OMM_VERS = 2.0
CREATION_DATE  = 
ORIGINATOR     = 

OBJECT_NAME    = COSMOS 2428
OBJECT_ID      = 2007-029A
CENTER_NAME    = EARTH
REF_FRAME      = TEME
TIME_SYSTEM    = UTC
MEAN_ELEMENT_THEORY = SGP/SGP4

EPOCH          = 2026-01-31T22:24:13.997376
MEAN_MOTION    = 14.12926393
ECCENTRICITY   = .00067629
INCLINATION    = 70.9400
RA_OF_ASC_NODE = 280.5011
ARG_OF_PERICENTER = 318.1489
MEAN_ANOMALY   = 41.9115

EPHEMERIS_TYPE = 0
CLASSIFICATION_TYPE = U
NORAD_CAT_ID   = 31792
ELEMENT_SET_NO = 999
REV_AT_EPOCH   = 95890
BSTAR          = .23985887E-3
MEAN_MOTION_DOT = .399E-5
MEAN_MOTION_DDOT = 0

CCSDS_OMM_VERS = 2.0
CREATION_DATE  = 
ORIGINATOR     = 

OBJECT_NAME    = SL-16 R/B
OBJECT_ID      = 2007-029B
CENTER_NAME    = EARTH
REF_FRAME      = TEME
TIME_SYSTEM    = UTC
MEAN_ELEMENT_THEORY = SGP/SGP4

EPOCH          = 2026-01-31T22:45:28.615104
MEAN_MOTION    = 14.14824276
ECCENTRICITY   = .00018217
INCLINATION    = 70.9730
RA_OF_ASC_NODE = 249.6174
ARG_OF_PERICENTER = 272.4727
MEAN_ANOMALY   = 187.0432

EPHEMERIS_TYPE = 0
CLASSIFICATION_TYPE = U
NORAD_CAT_ID   = 31793
ELEMENT_SET_NO = 999
REV_AT_EPOCH   = 96017
BSTAR          = .15957965E-3
MEAN_MOTION_DOT = .26E-5
MEAN_MOTION_DDOT = 0

CCSDS_OMM_VERS = 2.0
CREATION_DATE  = 
ORIGINATOR     = 

OBJECT_NAME    = KORONAS-FOTON
OBJECT_ID      = 2009-003A
CENTER_NAME    = EARTH
REF_FRAME      = TEME
TIME_SYSTEM    = UTC
MEAN_ELEMENT_THEORY = SGP/SGP4

EPOCH          = 2026-01-31T20:38:30.886944
MEAN_MOTION    = 15.42366076
ECCENTRICITY   = .00091097
INCLINATION    = 82.4332
RA_OF_ASC_NODE = 314.1330
ARG_OF_PERICENTER = 295.7422
MEAN_ANOMALY   = 64.2884

EPHEMERIS_TYPE = 0
CLASSIFICATION_TYPE = U
NORAD_CAT_ID   = 33504
ELEMENT_SET_NO = 999
REV_AT_EPOCH   = 94006
BSTAR          = .22196019E-3
MEAN_MOTION_DOT = .9625E-4
MEAN_MOTION_DDOT = 0

CCSDS_OMM_VERS = 2.0
CREATION_DATE  = 
ORIGINATOR     = 

OBJECT_NAME    = CZ-2C R/B
OBJECT_ID      = 2011-030B
CENTER_NAME    = EARTH
REF_FRAME      = TEME
TIME_SYSTEM    = UTC
MEAN_ELEMENT_THEORY = SGP/SGP4

EPOCH          = 2026-01-31T20:31:12.146880
MEAN_MOTION    = 14.81078655
ECCENTRICITY   = .00541136
INCLINATION    = 97.8481
RA_OF_ASC_NODE = 349.8765
ARG_OF_PERICENTER = 109.6505
MEAN_ANOMALY   = 278.4953

EPHEMERIS_TYPE = 0
CLASSIFICATION_TYPE = U
NORAD_CAT_ID   = 37731
ELEMENT_SET_NO = 999
REV_AT_EPOCH   = 78464
BSTAR          = .1822448E-3
MEAN_MOTION_DOT = .1396E-4
MEAN_MOTION_DDOT = 0

CCSDS_OMM_VERS = 2.0
CREATION_DATE  = 
ORIGINATOR     = 

OBJECT_NAME    = H-2A R/B
OBJECT_ID      = 2012-025E
CENTER_NAME    = EARTH
REF_FRAME      = TEME
TIME_SYSTEM    = UTC
MEAN_ELEMENT_THEORY = SGP/SGP4

EPOCH          = 2026-01-31T20:24:10.675584
MEAN_MOTION    = 14.94839513
ECCENTRICITY   = .00465016
INCLINATION    = 98.4669
RA_OF_ASC_NODE = 355.9763
ARG_OF_PERICENTER = 73.8129
MEAN_ANOMALY   = 286.8200

EPHEMERIS_TYPE = 0
CLASSIFICATION_TYPE = U
NORAD_CAT_ID   = 38341
ELEMENT_SET_NO = 999
REV_AT_EPOCH   = 74271
BSTAR          = .371863E-3
MEAN_MOTION_DOT = .4068E-4
MEAN_MOTION_DDOT = 0

CCSDS_OMM_VERS = 2.0
CREATION_DATE  = 
ORIGINATOR     = 

OBJECT_NAME    = SHIJIAN-16 (SJ-16)
OBJECT_ID      = 2013-057A
CENTER_NAME    = EARTH
REF_FRAME      = TEME
TIME_SYSTEM    = UTC
MEAN_ELEMENT_THEORY = SGP/SGP4

EPOCH          = 2026-01-31T22:57:53.449632
MEAN_MOTION    = 14.92217436
ECCENTRICITY   = .00173146
INCLINATION    = 74.9716
RA_OF_ASC_NODE = 254.6234
ARG_OF_PERICENTER = 203.3139
MEAN_ANOMALY   = 156.7266

EPHEMERIS_TYPE = 0
CLASSIFICATION_TYPE = U
NORAD_CAT_ID   = 39358
ELEMENT_SET_NO = 999
REV_AT_EPOCH   = 66602
BSTAR          = .8713144E-4
MEAN_MOTION_DOT = .861E-5
MEAN_MOTION_DDOT = 0

